0 COSMOS 2404 (GLONASS)
1 28112U 03056A   13277.37370633  .00000007  00000-0  00000+0 0  2461
2 28112 063.3040 226.6678 0036475 093.5764 098.4400 02.13087757 76400
0 COSMOS 2404 (GLONASS)
1 28112U 03056A   13280.10378891  .00000026  00000-0  00000+0 0  2472
2 28112 063.3032 226.5705 0036539 093.5477 032.7644 02.13087789 76465
0 COSMOS 2404 (GLONASS)
1 28112U 03056A   13291.00478641 -.00000032  00000-0  00000+0 0  2497
2 28112 063.3008 226.1820 0036503 093.5331 115.1358 02.13088066 76694
